[{"OBJECT_NAME":"STARLINK-2486","OBJECT_ID":"2021-027BD","EPOCH":"2026-03-09T12:25:51.988512","MEAN_MOTION":15.30224546,"ECCENTRICITY":0.00013501,"INCLINATION":53.1581,"RA_OF_ASC_NODE":101.8331,"ARG_OF_PERICENTER":88.6485,"MEAN_ANOMALY":271.467,"EPHEMERIS_TYPE":0,"CLASSIFICATION_TYPE":"U","NORAD_CAT_ID":48143,"ELEMENT_SET_NO":999,"REV_AT_EPOCH":27338,"BSTAR":0.00036146638,"MEAN_MOTION_DOT":0.00010369,"MEAN_MOTION_DDOT":0},{"OBJECT_NAME":"CZ-4B R\/B","OBJECT_ID":"2024-208C","EPOCH":"2026-03-09T16:49:23.143584","MEAN_MOTION":15.26980605,"ECCENTRICITY":0.01307988,"INCLINATION":97.9574,"RA_OF_ASC_NODE":113.1946,"ARG_OF_PERICENTER":150.913,"MEAN_ANOMALY":209.9477,"EPHEMERIS_TYPE":0,"CLASSIFICATION_TYPE":"U","NORAD_CAT_ID":61938,"ELEMENT_SET_NO":999,"REV_AT_EPOCH":7308,"BSTAR":0.00035146236,"MEAN_MOTION_DOT":0.000119,"MEAN_MOTION_DDOT":0}]
